{"fetched_at":"2026-07-12T07:15:20.031Z","source":"https://celestrak.org/NORAD/elements/gp.php?GROUP=oneweb&FORMAT=JSON","constellation":"oneweb","records":[{"OBJECT_NAME":"ONEWEB-0427","OBJECT_ID":"2021-132AG","EPOCH":"2026-07-11T20:39:36.245088","CLASSIFICATION_TYPE":"U","MEAN_MOTION":13.18686732,"ECCENTRICITY":0.0001885,"INCLINATION":87.9196,"RA_OF_ASC_NODE":330.5284,"ARG_OF_PERICENTER":90.7,"MEAN_ANOMALY":269.4349,"EPHEMERIS_TYPE":0,"NORAD_CAT_ID":50499,"ELEMENT_SET_NO":999,"REV_AT_EPOCH":22486,"BSTAR":0.000080227881,"MEAN_MOTION_DOT":4.5e-7,"MEAN_MOTION_DDOT":0},{"OBJECT_NAME":"ONEWEB-0429","OBJECT_ID":"2021-132AH","EPOCH":"2026-07-11T20:20:09.714624","CLASSIFICATION_TYPE":"U","MEAN_MOTION":13.18687031,"ECCENTRICITY":0.00019024,"INCLINATION":87.9187,"RA_OF_ASC_NODE":330.5538,"ARG_OF_PERICENTER":100.7341,"MEAN_ANOMALY":259.4005,"EPHEMERIS_TYPE":0,"NORAD_CAT_ID":50500,"ELEMENT_SET_NO":999,"REV_AT_EPOCH":22483,"BSTAR":-0.000087061029,"MEAN_MOTION_DOT":-2.1e-7,"MEAN_MOTION_DDOT":0},{"OBJECT_NAME":"ONEWEB-0430","OBJECT_ID":"2021-132AJ","EPOCH":"2026-07-11T20:03:10.014912","CLASSIFICATION_TYPE":"U","MEAN_MOTION":13.18687979,"ECCENTRICITY":0.00022028,"INCLINATION":87.9195,"RA_OF_ASC_NODE":330.5549,"ARG_OF_PERICENTER":103.8871,"MEAN_ANOMALY":256.2506,"EPHEMERIS_TYPE":0,"NORAD_CAT_ID":50501,"ELEMENT_SET_NO":999,"REV_AT_EPOCH":22487,"BSTAR":-0.00011535859,"MEAN_MOTION_DOT":-3.3e-7,"MEAN_MOTION_DDOT":0},{"OBJECT_NAME":"ONEWEB-0432","OBJECT_ID":"2021-132AK","EPOCH":"2026-07-11T19:38:42.401184","CLASSIFICATION_TYPE":"U","MEAN_MOTION":13.18685698,"ECCENTRICITY":0.00023663,"INCLINATION":87.9193,"RA_OF_ASC_NODE":330.5443,"ARG_OF_PERICENTER":99.1827,"MEAN_ANOMALY":260.9573,"EPHEMERIS_TYPE":0,"NORAD_CAT_ID":50502,"ELEMENT_SET_NO":999,"REV_AT_EPOCH":22482,"BSTAR":-0.000062221034,"MEAN_MOTION_DOT":-1.2e-7,"MEAN_MOTION_DDOT":0},{"OBJECT_NAME":"ONEWEB-0440","OBJECT_ID":"2021-132AL","EPOCH":"2026-07-11T20:32:18.472704","CLASSIFICATION_TYPE":"U","MEAN_MOTION":13.18687025,"ECCENTRICITY":0.00016084,"INCLINATION":87.9196,"RA_OF_ASC_NODE":330.5487,"ARG_OF_PERICENTER":105.2677,"MEAN_ANOMALY":254.8633,"EPHEMERIS_TYPE":0,"NORAD_CAT_ID":50503,"ELEMENT_SET_NO":999,"REV_AT_EPOCH":22482,"BSTAR":-0.000013845021,"MEAN_MOTION_DOT":7e-8,"MEAN_MOTION_DDOT":0},{"OBJECT_NAME":"ONEWEB-0450","OBJECT_ID":"2021-132AM","EPOCH":"2026-07-11T20:22:47.925120","CLASSIFICATION_TYPE":"U","MEAN_MOTION":13.1868676,"ECCENTRICITY":0.00019792,"INCLINATION":87.9185,"RA_OF_ASC_NODE":330.5524,"ARG_OF_PERICENTER":102.5179,"MEAN_ANOMALY":257.6175,"EPHEMERIS_TYPE":0,"NORAD_CAT_ID":50504,"ELEMENT_SET_NO":999,"REV_AT_EPOCH":22485,"BSTAR":-0.000062712319,"MEAN_MOTION_DOT":-1.2e-7,"MEAN_MOTION_DDOT":0},{"OBJECT_NAME":"ONEWEB-0410","OBJECT_ID":"2022-012A","EPOCH":"2026-07-11T12:24:15.749280","CLASSIFICATION_TYPE":"U","MEAN_MOTION":13.17649907,"ECCENTRICITY":0.00019891,"INCLINATION":87.9152,"RA_OF_ASC_NODE":1.0192,"ARG_OF_PERICENTER":52.8851,"MEAN_ANOMALY":307.2462,"EPHEMERIS_TYPE":0,"NORAD_CAT_ID":51622,"ELEMENT_SET_NO":999,"REV_AT_EPOCH":21690,"BSTAR":0.000020791037,"MEAN_MOTION_DOT":2.1e-7,"MEAN_MOTION_DDOT":0},{"OBJECT_NAME":"ONEWEB-0411","OBJECT_ID":"2022-012B","EPOCH":"2026-07-11T14:24:40.161312","CLASSIFICATION_TYPE":"U","MEAN_MOTION":13.10377731,"ECCENTRICITY":0.00021946,"INCLINATION":87.8827,"RA_OF_ASC_NODE":31.4026,"ARG_OF_PERICENTER":97.673,"MEAN_ANOMALY":262.4647,"EPHEMERIS_TYPE":0,"NORAD_CAT_ID":51623,"ELEMENT_SET_NO":999,"REV_AT_EPOCH":21248,"BSTAR":-0.00017598659,"MEAN_MOTION_DOT":-4.9e-7,"MEAN_MOTION_DDOT":0},{"OBJECT_NAME":"ONEWEB-0415","OBJECT_ID":"2022-012C","EPOCH":"2026-07-11T14:19:46.062624","CLASSIFICATION_TYPE":"U","MEAN_MOTION":13.10378279,"ECCENTRICITY":0.00021518,"INCLINATION":87.8824,"RA_OF_ASC_NODE":31.4021,"ARG_OF_PERICENTER":87.2395,"MEAN_ANOMALY":272.8979,"EPHEMERIS_TYPE":0,"NORAD_CAT_ID":51624,"ELEMENT_SET_NO":999,"REV_AT_EPOCH":21248,"BSTAR":-0.00024687512,"MEAN_MOTION_DOT":-7.4e-7,"MEAN_MOTION_DDOT":0},{"OBJECT_NAME":"ONEWEB-0416","OBJECT_ID":"2022-012D","EPOCH":"2026-07-11T14:36:53.823456","CLASSIFICATION_TYPE":"U","MEAN_MOTION":13.10376701,"ECCENTRICITY":0.00022186,"INCLINATION":87.8816,"RA_OF_ASC_NODE":31.4161,"ARG_OF_PERICENTER":84.8571,"MEAN_ANOMALY":275.281,"EPHEMERIS_TYPE":0,"NORAD_CAT_ID":51625,"ELEMENT_SET_NO":999,"REV_AT_EPOCH":21252,"BSTAR":0.0013017773,"MEAN_MOTION_DOT":0.00000467,"MEAN_MOTION_DDOT":0},{"OBJECT_NAME":"ONEWEB-0422","OBJECT_ID":"2022-012E","EPOCH":"2026-07-11T19:56:13.706016","CLASSIFICATION_TYPE":"U","MEAN_MOTION":13.17651316,"ECCENTRICITY":0.00018715,"INCLINATION":87.9149,"RA_OF_ASC_NODE":0.9569,"ARG_OF_PERICENTER":113.1896,"MEAN_ANOMALY":246.9433,"EPHEMERIS_TYPE":0,"NORAD_CAT_ID":51626,"ELEMENT_SET_NO":999,"REV_AT_EPOCH":21705,"BSTAR":0.00035984467,"MEAN_MOTION_DOT":0.00000153,"MEAN_MOTION_DDOT":0},{"OBJECT_NAME":"ONEWEB-0423","OBJECT_ID":"2022-012F","EPOCH":"2026-07-11T21:35:51.643392","CLASSIFICATION_TYPE":"U","MEAN_MOTION":13.17647867,"ECCENTRICITY":0.00018057,"INCLINATION":87.914,"RA_OF_ASC_NODE":0.9473,"ARG_OF_PERICENTER":89.8726,"MEAN_ANOMALY":270.2613,"EPHEMERIS_TYPE":0,"NORAD_CAT_ID":51627,"ELEMENT_SET_NO":999,"REV_AT_EPOCH":21695,"BSTAR":0.000040939302,"MEAN_MOTION_DOT":2.9e-7,"MEAN_MOTION_DDOT":0},{"OBJECT_NAME":"ONEWEB-0425","OBJECT_ID":"2022-012G","EPOCH":"2026-07-11T13:01:36.980832","CLASSIFICATION_TYPE":"U","MEAN_MOTION":13.10374767,"ECCENTRICITY":0.00018692,"INCLINATION":87.8816,"RA_OF_ASC_NODE":31.4133,"ARG_OF_PERICENTER":73.2798,"MEAN_ANOMALY":286.8535,"EPHEMERIS_TYPE":0,"NORAD_CAT_ID":51628,"ELEMENT_SET_NO":999,"REV_AT_EPOCH":21251,"BSTAR":0.0020569279,"MEAN_MOTION_DOT":0.00000731,"MEAN_MOTION_DDOT":0},{"OBJECT_NAME":"ONEWEB-0428","OBJECT_ID":"2022-012H","EPOCH":"2026-07-11T14:22:13.002240","CLASSIFICATION_TYPE":"U","MEAN_MOTION":13.10377993,"ECCENTRICITY":0.00017504,"INCLINATION":87.8811,"RA_OF_ASC_NODE":31.4077,"ARG_OF_PERICENTER":84.772,"MEAN_ANOMALY":275.3607,"EPHEMERIS_TYPE":0,"NORAD_CAT_ID":51629,"ELEMENT_SET_NO":999,"REV_AT_EPOCH":21248,"BSTAR":-0.00030791078,"MEAN_MOTION_DOT":-9.5e-7,"MEAN_MOTION_DDOT":0},{"OBJECT_NAME":"ONEWEB-0431","OBJECT_ID":"2022-012J","EPOCH":"2026-07-11T13:37:59.870784","CLASSIFICATION_TYPE":"U","MEAN_MOTION":13.10369733,"ECCENTRICITY":0.00023354,"INCLINATION":87.8814,"RA_OF_ASC_NODE":31.4077,"ARG_OF_PERICENTER":102.1304,"MEAN_ANOMALY":258.0085,"EPHEMERIS_TYPE":0,"NORAD_CAT_ID":51630,"ELEMENT_SET_NO":999,"REV_AT_EPOCH":21253,"BSTAR":-0.00088218527,"MEAN_MOTION_DOT":-0.00000295,"MEAN_MOTION_DDOT":0},{"OBJECT_NAME":"ONEWEB-0434","OBJECT_ID":"2022-012K","EPOCH":"2026-07-11T13:06:42.055776","CLASSIFICATION_TYPE":"U","MEAN_MOTION":13.10372972,"ECCENTRICITY":0.0001679,"INCLINATION":87.8822,"RA_OF_ASC_NODE":31.4385,"ARG_OF_PERICENTER":66.5508,"MEAN_ANOMALY":293.5795,"EPHEMERIS_TYPE":0,"NORAD_CAT_ID":51631,"ELEMENT_SET_NO":999,"REV_AT_EPOCH":21251,"BSTAR":0.0022758855,"MEAN_MOTION_DOT":0.00000807,"MEAN_MOTION_DDOT":0}]}
